OBJECT_NAME,OBJECT_ID,EPOCH,MEAN_MOTION,ECCENTRICITY,INCLINATION,RA_OF_ASC_NODE,ARG_OF_PERICENTER,MEAN_ANOMALY,EPHEMERIS_TYPE,CLASSIFICATION_TYPE,NORAD_CAT_ID,ELEMENT_SET_NO,REV_AT_EPOCH,BSTAR,MEAN_MOTION_DOT,MEAN_MOTION_DDOT
DMSP 5D-3 F16 (USA 172),2003-048A,2026-06-27T23:30:31.049856,14.14483795,.00081154,98.9887,202.8791,113.2916,268.3223,0,U,28054,999,17101,.30911286E-4,.14E-6,0
METEOSAT-9 (MSG-2),2005-049B,2026-06-27T19:33:58.957344,1.00278089,.00019584,9.3846,54.0636,358.6343,202.4759,0,U,28912,999,710,0,.126E-5,0
DMSP 5D-3 F17 (USA 191),2006-050A,2026-06-27T23:43:28.114176,14.14994277,.00107252,98.7378,185.3376,31.1099,329.0708,0,U,29522,999,1395,.4654369E-4,.47E-6,0
FENGYUN 3A,2008-026A,2026-06-27T19:57:04.959360,14.19573281,.00098861,98.6885,119.4655,96.3169,263.9134,0,U,32958,999,93691,.47627569E-4,.57E-6,0
GOES 14,2009-033A,2026-06-27T21:42:15.765696,1.00107821,.00022687,1.7171,82.9253,20.2554,273.9638,0,U,35491,999,669,0,-.317E-5,0
DMSP 5D-3 F18 (USA 210),2009-057A,2026-06-27T23:03:16.015392,14.14902670,.00102451,98.9041,159.7065,215.8239,144.2248,0,U,35951,999,86111,.14122125E-3,.228E-5,0
EWS-G2 (GOES 15),2010-008A,2026-06-27T22:30:35.473248,1.00268108,.00053569,1.3065,82.6983,43.1852,191.3426,0,U,36411,999,5974,0,.31E-6,0
COMS 1,2010-032A,2026-06-27T22:54:57.028608,0.99167183,.00119078,4.8320,75.2315,13.2513,201.8321,0,U,36744,999,5119,0,.21E-6,0
FENGYUN 3B,2010-059A,2026-06-27T23:50:32.057376,14.14844315,.00225391,98.9621,225.0535,153.6151,324.2234,0,U,37214,999,80895,.19796497E-3,.338E-5,0
SUOMI NPP,2011-061A,2026-06-27T23:36:51.697152,14.19519474,.00009177,98.7955,119.7863,333.6014,26.5115,0,U,37849,999,75997,.4361489E-4,.48E-6,0
METEOSAT-10 (MSG-3),2012-035B,2026-06-27T22:46:18.221664,1.00268869,.00017552,4.6964,60.9719,10.4238,186.4004,0,U,38552,999,5096,0,.1E-7,0
METOP-B,2012-049A,2026-06-27T21:20:14.559360,14.21442083,.00015665,98.6499,230.1746,346.9839,13.1297,0,U,38771,999,71478,.68920303E-4,.107E-5,0
INSAT-3D,2013-038B,2026-06-27T21:40:38.421408,1.00271347,.00011552,1.9532,82.4183,4.9020,283.3667,0,U,39216,999,4718,0,-.329E-5,0
FENGYUN 3C,2013-052A,2026-06-27T22:15:37.927584,14.15757349,.00146131,98.4984,152.3094,357.4416,2.6681,0,U,39260,999,66008,.49748388E-4,.56E-6,0
METEOR-M 2,2014-037A,2026-06-27T21:57:59.073984,14.21464652,.00061913,98.5111,154.2736,17.1768,342.9618,0,U,40069,999,62084,.11142436E-3,.202E-5,0
HIMAWARI-8,2014-060A,2026-06-27T21:43:45.621696,1.00273864,.00011152,0.0143,336.6087,116.7412,289.2575,0,U,40267,999,4286,0,-.263E-5,0
FENGYUN 2G,2014-090A,2026-06-27T23:12:30.155616,1.00268646,.00036207,5.6662,72.6905,149.7267,141.4121,0,U,40367,999,4210,0,-.295E-5,0
METEOSAT-11 (MSG-4),2015-034A,2026-06-27T21:06:18.396576,1.00266419,.0002232,3.2273,71.0439,347.6611,183.2604,0,U,40732,999,732,0,.7E-6,0
ELEKTRO-L 2,2015-074A,2026-06-27T22:42:11.116800,1.00271140,.000068,6.7214,70.3918,283.3214,248.3333,0,U,41105,999,3861,0,-.113E-5,0
SENTINEL-3A,2016-011A,2026-06-27T22:42:52.438464,14.26735411,.00014355,98.6246,246.1754,96.4602,263.6742,0,U,41335,999,53959,.57482565E-4,.95E-6,0
INSAT-3DR,2016-054A,2026-06-27T18:21:45.980064,1.00272445,.0010036,0.1323,86.1351,186.7215,352.4288,0,U,41752,999,3592,0,-.65E-6,0
HIMAWARI-9,2016-064A,2026-06-27T21:43:45.621696,1.00270693,.00011896,0.0160,53.4531,61.8863,267.3660,0,U,41836,999,3531,0,-.263E-5,0
GOES 16,2016-071A,2026-06-27T22:16:26.658048,1.00272096,.00006006,0.3676,85.5181,12.5611,47.3688,0,U,41866,999,3521,0,-.8E-6,0
FENGYUN 4A,2016-077A,2026-06-27T21:38:53.588832,1.00278495,.0007946,2.3489,80.1799,157.9961,126.1925,0,U,41882,999,3503,0,-.347E-5,0
CYGFM05,2016-078A,2026-06-27T10:32:11.075712,15.57089689,.00081541,34.9549,192.6818,243.7506,116.2380,0,U,41884,999,53035,.28214144E-3,.21158E-3,0
CYGFM04,2016-078B,2026-06-27T22:51:44.049888,15.62090199,.00072062,34.9305,156.4201,284.0138,75.9786,0,U,41885,999,53068,.33366819E-3,.30342E-3,0
CYGFM02,2016-078C,2026-06-27T22:22:35.531616,15.65179885,.00081606,34.9385,150.7714,286.0294,73.9534,0,U,41886,999,53085,.34373372E-3,.3536E-3,0
CYGFM01,2016-078D,2026-06-27T17:50:50.015616,15.57795702,.00080134,34.9380,191.6334,240.6624,119.3300,0,U,41887,999,53035,.30245809E-3,.23302E-3,0
CYGFM08,2016-078E,2026-06-27T16:26:09.178944,15.60533684,.00091696,34.9411,171.3225,268.3331,91.6344,0,U,41888,999,53061,.32016875E-3,.27415E-3,0
CYGFM07,2016-078G,2026-06-27T15:26:23.215200,15.60633033,.00076099,34.9427,159.9318,281.0926,78.8944,0,U,41890,999,53063,.3182356E-3,.27336E-3,0
CYGFM03,2016-078H,2026-06-27T08:36:15.066144,15.60611591,.00073465,34.9383,163.7636,268.1651,91.8233,0,U,41891,999,53056,.33738911E-3,.28964E-3,0
