DMSP 5D-3 F16 (USA 172) 
1 28054U 03048A   26178.97952604  .00000014  00000+0  30911-4 0  9992
2 28054  98.9887 202.8791 0008115 113.2916 268.3223 14.14483795171019
METEOSAT-9 (MSG-2)      
1 28912U 05049B   26178.81526571  .00000126  00000+0  00000+0 0  9996
2 28912   9.3846  54.0636 0001958 358.6343 202.4759  1.00278089  7105
DMSP 5D-3 F17 (USA 191) 
1 29522U 06050A   26178.98851984  .00000047  00000+0  46544-4 0  9994
2 29522  98.7378 185.3376 0010725  31.1099 329.0708 14.14994277 13950
FENGYUN 3A              
1 32958U 08026A   26178.83130740  .00000057  00000+0  47628-4 0  9995
2 32958  98.6885 119.4655 0009886  96.3169 263.9134 14.19573281936916
GOES 14                 
1 35491U 09033A   26178.90434914 -.00000317  00000+0  00000+0 0  9995
2 35491   1.7171  82.9253 0002268  20.2554 273.9638  1.00107821  6695
DMSP 5D-3 F18 (USA 210) 
1 35951U 09057A   26178.96060203  .00000228  00000+0  14122-3 0  9998
2 35951  98.9041 159.7065 0010245 215.8239 144.2248 14.14902670861117
EWS-G2 (GOES 15)        
1 36411U 10008A   26178.93791057  .00000031  00000+0  00000+0 0  9991
2 36411   1.3065  82.6983 0005356  43.1852 191.3426  1.00268108 59747
COMS 1                  
1 36744U 10032A   26178.95482672  .00000021  00000+0  00000+0 0  9998
2 36744   4.8320  75.2315 0011907  13.2513 201.8321  0.99167183 51196
FENGYUN 3B              
1 37214U 10059A   26178.99342659  .00000338  00000+0  19796-3 0  9991
2 37214  98.9621 225.0535 0022539 153.6151 324.2234 14.14844315808954
SUOMI NPP               
1 37849U 11061A   26178.98393168  .00000048  00000+0  43615-4 0  9995
2 37849  98.7955 119.7863 0000917 333.6014  26.5115 14.19519474759970
METEOSAT-10 (MSG-3)     
1 38552U 12035B   26178.94882201  .00000001  00000+0  00000+0 0  9991
2 38552   4.6964  60.9719 0001755  10.4238 186.4004  1.00268869 50965
METOP-B                 
1 38771U 12049A   26178.88905740  .00000107  00000+0  68920-4 0  9993
2 38771  98.6499 230.1746 0001566 346.9839  13.1297 14.21442083714785
INSAT-3D                
1 39216U 13038B   26178.90322247 -.00000329  00000+0  00000+0 0  9992
2 39216   1.9532  82.4183 0001155   4.9020 283.3667  1.00271347 47186
FENGYUN 3C              
1 39260U 13052A   26178.92752231  .00000056  00000+0  49748-4 0  9992
2 39260  98.4984 152.3094 0014613 357.4416   2.6681 14.15757349660082
METEOR-M 2              
1 40069U 14037A   26178.91526706  .00000202  00000+0  11142-3 0  9999
2 40069  98.5111 154.2736 0006191  17.1768 342.9618 14.21464652620849
HIMAWARI-8              
1 40267U 14060A   26178.90538914 -.00000263  00000+0  00000+0 0  9993
2 40267   0.0143 336.6087 0001115 116.7412 289.2575  1.00273864 42861
FENGYUN 2G              
1 40367U 14090A   26178.96701569 -.00000295  00000+0  00000+0 0  9996
2 40367   5.6662  72.6905 0003620 149.7267 141.4121  1.00268646 42107
METEOSAT-11 (MSG-4)     
1 40732U 15034A   26178.87937959  .00000070  00000+0  00000+0 0  9995
2 40732   3.2273  71.0439 0002232 347.6611 183.2604  1.00266419  7321
ELEKTRO-L 2             
1 41105U 15074A   26178.94596200 -.00000113  00000+0  00000+0 0  9991
2 41105   6.7214  70.3918 0000680 283.3214 248.3333  1.00271140 38618
SENTINEL-3A             
1 41335U 16011A   26178.94644026  .00000095  00000+0  57483-4 0  9998
2 41335  98.6246 246.1754 0001435  96.4602 263.6742 14.26735411539597
INSAT-3DR               
1 41752U 16054A   26178.76511551 -.00000065  00000+0  00000+0 0  9990
2 41752   0.1323  86.1351 0010036 186.7215 352.4288  1.00272445 35920
HIMAWARI-9              
1 41836U 16064A   26178.90538914 -.00000263  00000+0  00000+0 0  9992
2 41836   0.0160  53.4531 0001189  61.8863 267.3660  1.00270693 35313
GOES 16                 
1 41866U 16071A   26178.92808632 -.00000080  00000+0  00000+0 0  9999
2 41866   0.3676  85.5181 0000600  12.5611  47.3688  1.00272096 35213
FENGYUN 4A              
1 41882U 16077A   26178.90200913 -.00000347  00000+0  00000+0 0  9995
2 41882   2.3489  80.1799 0007946 157.9961 126.1925  1.00278495 35032
CYGFM05                 
1 41884U 16078A   26178.43901708  .00021158  00000+0  28214-3 0  9999
2 41884  34.9549 192.6818 0008154 243.7506 116.2380 15.57089689530356
CYGFM04                 
1 41885U 16078B   26178.95259317  .00030342  00000+0  33367-3 0  9999
2 41885  34.9305 156.4201 0007206 284.0138  75.9786 15.62090199530688
CYGFM02                 
1 41886U 16078C   26178.93235569  .00035360  00000+0  34373-3 0  9994
2 41886  34.9385 150.7714 0008160 286.0294  73.9534 15.65179885530859
CYGFM01                 
1 41887U 16078D   26178.74363444  .00023302  00000+0  30246-3 0  9996
2 41887  34.9380 191.6334 0008013 240.6624 119.3300 15.57795702530351
CYGFM08                 
1 41888U 16078E   26178.68482846  .00027415  00000+0  32017-3 0  9995
2 41888  34.9411 171.3225 0009169 268.3331  91.6344 15.60533684530618
CYGFM07                 
1 41890U 16078G   26178.64332425  .00027336  00000+0  31824-3 0  9998
2 41890  34.9427 159.9318 0007609 281.0926  78.8944 15.60633033530636
CYGFM03                 
1 41891U 16078H   26178.35850771  .00028964  00000+0  33739-3 0  9991
2 41891  34.9383 163.7636 0007346 268.1651  91.8233 15.60611591530566
